STARLINK-4793           
1 53867U 22114BB  26158.50004630  .00006615  00000+0  24569-3 0  9995
2 53867  53.2163 224.1697 0001319  68.9223  69.3086 15.28766310  5844
STARLINK-4789           
1 53868U 22114BC  26158.44374348 -.00007539  00000+0 -45583-3 0  9992
2 53868  53.1721 221.0692 0001763 145.3517 214.7589 15.08857543206949
STARLINK-4810           
1 53869U 22114BD  26158.49064387 -.00000683  00000+0 -24809-4 0  9999
2 53869  53.1727 230.6165 0001382  84.9828 275.1321 15.08829485206812
STARLINK-4732           
1 53870U 22114BE  26158.44743515  .00000107  00000+0  24823-4 0  9998
2 53870  53.1739 221.0759 0001242  89.9574 270.1560 15.08831454206941
STARLINK-4740           
1 53871U 22114BF  26156.49700961 -.00004277  00000+0 -25091-3 0  9991
2 53871  53.1838 229.5453 0002115 150.1138 209.9974 15.08813244206657
STARLINK-5028           
1 53886U 22119A   26158.06291729 -.00001880  00000+0 -10006-3 0  9991
2 53886  53.1739 283.1014 0001381  87.8079 272.3071 15.08838463205174
STARLINK-5029           
1 53887U 22119B   26158.05186275 -.00000234  00000+0  33625-5 0  9995
2 53887  53.1722 283.0326 0001085  95.1911 264.9204 15.08826986205172
STARLINK-5034           
1 53888U 22119C   26158.50004630  .00475185  10219-3  11974-2 0  9997
2 53888  53.2126 251.2117 0001025  44.2405 222.1205 15.95077948  6026
STARLINK-5031           
1 53889U 22119D   26158.05554192  .00000560  00000+0  53258-4 0  9998
2 53889  53.1715 283.0557 0001100  99.8137 260.2978 15.08832047205173
STARLINK-5050           
1 53890U 22119E   26158.34760192 -.00000647  00000+0 -22588-4 0  9991
2 53890  53.1689 246.3736 0001119  80.4646 279.6472 15.08828429205719
STARLINK-5041           
1 53891U 22119F   26158.50004630  .00088092  00000+0  20694-2 0  9990
2 53891  53.2171 273.3125 0001010  78.7643 229.8056 15.41294583  5882
STARLINK-5046           
1 53892U 22119G   26157.63230830  .00001344  00000+0  10256-3 0  9996
2 53892  53.1747 284.6835 0001283  82.2315 277.8822 15.08825086205115
STARLINK-5052           
1 53893U 22119H   26158.04176105 -.00000682  00000+0 -24754-4 0  9992
2 53893  53.1719 282.9702 0001164  83.5512 276.5613 15.08826647205174
STARLINK-5043           
1 53894U 22119J   26158.50004630  .00791044  00000+0  18121-1 0  9992
2 53894  53.2169 276.8118 0000928  70.6210 236.1537 15.39995624  5808
STARLINK-5032           
1 53895U 22119K   26158.50004630  .00543813  00000+0  26222-2 0  9994
2 53895  53.2154 259.6022 0000952  40.4810 358.7202 15.80594933  5976
STARLINK-5037           
1 53896U 22119L   26157.62861903  .00001476  00000+0  11084-3 0  9996
2 53896  53.1711 284.6571 0000516  73.6872 286.4176 15.08828128205115
STARLINK-5035           
1 53897U 22119M   26158.50004630  .00155826  00000+0  19646-2 0  9991
2 53897  53.2167 269.1920 0000949  54.8485 180.4604 15.58599821  5914
STARLINK-5044           
1 53898U 22119N   26158.08124304  .00000848  00000+0  71355-4 0  9996
2 53898  53.1745 282.5083 0001330  90.0945 270.0199 15.08838493205185
STARLINK-5042           
1 53899U 22119P   26158.50004630  .00383789  00000+0  16722-2 0  9996
2 53899  53.2153 260.1250 0001469  44.5745  78.2287 15.83198596  5970
STARLINK-5045           
1 53900U 22119Q   26158.07388177 -.00000088  00000+0  12572-4 0  9992
2 53900  53.1725 282.4619 0001304  86.9947 273.1193 15.08831985205185
STARLINK-5021           
1 53902U 22119S   26158.47225470 -.00000414  00000+0 -79249-5 0  9993
2 53902  53.1738 230.7842 0001213  91.5596 268.5535 15.08831842205940
STARLINK-5022           
1 53903U 22119T   26157.62589038  .00000605  00000+0  56096-4 0  9997
2 53903  53.1801 284.6369 0001005 105.7628 254.3475 15.08838794205115
STARLINK-4787           
1 53904U 22119U   26158.07019036 -.00001690  00000+0 -88086-4 0  9995
2 53904  53.1714 282.4438 0000729 102.4351 257.6722 15.08844642205188
STARLINK-5003           
1 53905U 22119V   26157.59647708  .00003008  00000+0  20702-3 0  9998
2 53905  53.1781 275.1897 0000986  86.0140 274.0965 15.08831894205243
STARLINK-5054           
1 53906U 22119W   26158.01225266 -.00000339  00000+0 -31933-5 0  9994
2 53906  53.1703 272.8182 0001250  96.0511 264.0623 15.08827349205315
STARLINK-5057           
1 53908U 22119Y   26158.05278088 -.00000046  00000+0  15229-4 0  9993
2 53908  53.1731 273.0581 0001279  91.7030 268.4108 15.08832909205317
STARLINK-4796           
1 53909U 22119Z   26157.60012876  .00005160  00000+0  34200-3 0  9995
2 53909  53.1839 275.2134 0001464  91.2234 268.8925 15.08844181205240
STARLINK-5048           
1 53911U 22119AB  26158.05647821 -.00005119  00000+0 -30387-3 0  9990
2 53911  53.1756 273.0834 0001364  57.1274 302.9848 15.08828189205310
STARLINK-5059           
1 53912U 22119AC  26157.60743029 -.00000832  00000+0 -34199-4 0  9991
2 53912  53.1715 274.5577 0001013 110.2715 249.8386 15.08828045205258
STARLINK-5053           
1 53913U 22119AD  26158.03804586 -.00000450  00000+0 -10214-4 0  9994
2 53913  53.1718 272.9649 0001242  90.8887 269.2247 15.08828572205315
