OBJECT_NAME,OBJECT_ID,EPOCH,MEAN_MOTION,ECCENTRICITY,INCLINATION,RA_OF_ASC_NODE,ARG_OF_PERICENTER,MEAN_ANOMALY,EPHEMERIS_TYPE,CLASSIFICATION_TYPE,NORAD_CAT_ID,ELEMENT_SET_NO,REV_AT_EPOCH,BSTAR,MEAN_MOTION_DOT,MEAN_MOTION_DDOT
STARLINK-4793,2022-114BB,2026-06-07T12:00:04.000320,15.28766310,.0001319,53.2163,224.1697,68.9223,69.3086,0,U,53867,999,584,.24569E-3,.6615E-4,0
STARLINK-4789,2022-114BC,2026-06-07T10:38:59.436672,15.08857543,.0001763,53.1721,221.0692,145.3517,214.7589,0,U,53868,999,20694,-.45583E-3,-.7539E-4,0
STARLINK-4810,2022-114BD,2026-06-07T11:46:31.630368,15.08829485,.0001382,53.1727,230.6165,84.9828,275.1321,0,U,53869,999,20681,-.24809E-4,-.683E-5,0
STARLINK-4732,2022-114BE,2026-06-07T10:44:18.396960,15.08831454,.0001242,53.1739,221.0759,89.9574,270.1560,0,U,53870,999,20694,.24823E-4,.107E-5,0
STARLINK-4740,2022-114BF,2026-06-05T11:55:41.630304,15.08813244,.00021156,53.1838,229.5453,150.1138,209.9974,0,U,53871,999,20665,-.25091291E-3,-.4277E-4,0
STARLINK-5028,2022-119A,2026-06-07T01:30:36.053856,15.08838463,.0001381,53.1739,283.1014,87.8079,272.3071,0,U,53886,999,20517,-.10006E-3,-.188E-4,0
STARLINK-5029,2022-119B,2026-06-07T01:14:40.941600,15.08826986,.0001085,53.1722,283.0326,95.1911,264.9204,0,U,53887,999,20517,.33625E-5,-.234E-5,0
STARLINK-5034,2022-119C,2026-06-07T12:00:04.000320,15.95077948,.0001025,53.2126,251.2117,44.2405,222.1205,0,U,53888,999,602,.11974E-2,.475185E-2,.10219E-3
STARLINK-5031,2022-119D,2026-06-07T01:19:58.821888,15.08832047,.00011,53.1715,283.0557,99.8137,260.2978,0,U,53889,999,20517,.53258E-4,.56E-5,0
STARLINK-5050,2022-119E,2026-06-07T08:20:32.805888,15.08828429,.0001119,53.1689,246.3736,80.4646,279.6472,0,U,53890,999,20571,-.22588E-4,-.647E-5,0
STARLINK-5041,2022-119F,2026-06-07T12:00:04.000320,15.41294583,.000101,53.2171,273.3125,78.7643,229.8056,0,U,53891,999,588,.20694E-2,.88092E-3,0
STARLINK-5046,2022-119G,2026-06-06T15:10:31.437120,15.08825086,.0001283,53.1747,284.6835,82.2315,277.8822,0,U,53892,999,20511,.10256E-3,.1344E-4,0
STARLINK-5052,2022-119H,2026-06-07T01:00:08.154720,15.08826647,.0001164,53.1719,282.9702,83.5512,276.5613,0,U,53893,999,20517,-.24754E-4,-.682E-5,0
STARLINK-5043,2022-119J,2026-06-07T12:00:04.000320,15.39995624,.0000928,53.2169,276.8118,70.6210,236.1537,0,U,53894,999,580,.18121E-1,.791044E-2,0
STARLINK-5032,2022-119K,2026-06-07T12:00:04.000320,15.80594933,.0000952,53.2154,259.6022,40.4810,358.7202,0,U,53895,999,597,.26222E-2,.543813E-2,0
STARLINK-5037,2022-119L,2026-06-06T15:05:12.684192,15.08828128,.0000516,53.1711,284.6571,73.6872,286.4176,0,U,53896,999,20511,.11084E-3,.1476E-4,0
STARLINK-5035,2022-119M,2026-06-07T12:00:04.000320,15.58599821,.0000949,53.2167,269.1920,54.8485,180.4604,0,U,53897,999,591,.19646E-2,.155826E-2,0
STARLINK-5044,2022-119N,2026-06-07T01:56:59.398656,15.08838493,.000133,53.1745,282.5083,90.0945,270.0199,0,U,53898,999,20518,.71355E-4,.848E-5,0
STARLINK-5042,2022-119P,2026-06-07T12:00:04.000320,15.83198596,.0001469,53.2153,260.1250,44.5745,78.2287,0,U,53899,999,597,.16722E-2,.383789E-2,0
STARLINK-5045,2022-119Q,2026-06-07T01:46:23.384928,15.08831985,.0001304,53.1725,282.4619,86.9947,273.1193,0,U,53900,999,20518,.12572E-4,-.88E-6,0
STARLINK-5021,2022-119S,2026-06-07T11:20:02.806080,15.08831842,.0001213,53.1738,230.7842,91.5596,268.5535,0,U,53902,999,20594,-.79249E-5,-.414E-5,0
STARLINK-5022,2022-119T,2026-06-06T15:01:16.928832,15.08838794,.0001005,53.1801,284.6369,105.7628,254.3475,0,U,53903,999,20511,.56096E-4,.605E-5,0
STARLINK-4787,2022-119U,2026-06-07T01:41:04.447104,15.08844642,.0000729,53.1714,282.4438,102.4351,257.6722,0,U,53904,999,20518,-.88086E-4,-.169E-4,0
STARLINK-5003,2022-119V,2026-06-06T14:18:55.619712,15.08831894,.0000986,53.1781,275.1897,86.0140,274.0965,0,U,53905,999,20524,.20702E-3,.3008E-4,0
STARLINK-5054,2022-119W,2026-06-07T00:17:38.629824,15.08827349,.000125,53.1703,272.8182,96.0511,264.0623,0,U,53906,999,20531,-.31933E-5,-.339E-5,0
STARLINK-5057,2022-119Y,2026-06-07T01:16:00.268032,15.08832909,.0001279,53.1731,273.0581,91.7030,268.4108,0,U,53908,999,20531,.15229E-4,-.46E-6,0
STARLINK-4796,2022-119Z,2026-06-06T14:24:11.124864,15.08844181,.0001464,53.1839,275.2134,91.2234,268.8925,0,U,53909,999,20524,.342E-3,.516E-4,0
STARLINK-5048,2022-119AB,2026-06-07T01:21:19.717344,15.08828189,.0001364,53.1756,273.0834,57.1274,302.9848,0,U,53911,999,20531,-.30387E-3,-.5119E-4,0
STARLINK-5059,2022-119AC,2026-06-06T14:34:41.977056,15.08828045,.0001013,53.1715,274.5577,110.2715,249.8386,0,U,53912,999,20525,-.34199E-4,-.832E-5,0
STARLINK-5053,2022-119AD,2026-06-07T00:54:47.162304,15.08828572,.0001242,53.1718,272.9649,90.8887,269.2247,0,U,53913,999,20531,-.10214E-4,-.45E-5,0
